NORAD_CAT_ID,OBJECT_NAME,OBJECT_TYPE,EPOCH,MEAN_MOTION,ECCENTRICITY,INCLINATION,RA_OF_ASC_NODE,ARG_OF_PERICENTER,MEAN_ANOMALY,BSTAR,MEAN_MOTION_DOT,MEAN_MOTION_DDOT,TLE_LINE0,TLE_LINE1,TLE_LINE2,SEMIMAJOR_AXIS,PERIOD,APOGEE,PERIGEE,DECAYED
52689.0,STARLINK-4078,PAYLOAD,2022-07-09 20:00:01,15.58635592,0.00019,53.2175,38.8892,26.44400000000001,306.1090000000001,-0.014948,-0.01063106,0.0,0 STARLINK-4078,1 52689U 22053AK  22190.83334491 -.01063106  00000-0 -14948-1 0  9997,2 52689  53.2175  38.8892 0001900  26.4440 306.1090 15.58635592  8560,6769.7419999999975,92.388,392.893,390.321,0.0
52689.0,STARLINK-4078,PAYLOAD,2022-07-10 14:00:01,15.56926298,0.0001745,53.2177,35.2668,38.2726,182.6609,-0.015906,-0.01060579,0.0,0 STARLINK-4078,1 52689U 22053AK  22191.58334491 -.01060579  00000-0 -15906-1 0  9996,2 52689  53.2177  35.2668 0001745  38.2726 182.6609 15.56926298  8689,6774.696,92.49,397.74300000000005,395.379,0.0
52689.0,STARLINK-4078,PAYLOAD,2022-07-10 22:00:00,15.56168051,0.0001766,53.2176,33.6624,33.7702,256.0699,-0.016413,-0.01063451,0.0,0 STARLINK-4078,1 52689U 22053AK  22191.91667824 -.01063451  00000-0 -16413-1 0  9998,2 52689  53.2176  33.6624 0001766  33.7702 256.0699 15.56168051  1301,6776.896,92.535,399.958,397.565,0.0
52689.0,STARLINK-4078,PAYLOAD,2022-07-11 06:00:00,15.55408808,0.0001488,53.2175,32.0566,36.1933,321.643,-0.016896,-0.01064063,0.0,0 STARLINK-4078,1 52689U 22053AK  22192.25001157 -.01064063  00000-0 -16896-1 0  9992,2 52689  53.2175  32.0566 0001488  36.1933 321.6430 15.55408808  8789,6779.102,92.58,401.975,399.958,0.0
52689.0,STARLINK-4078,PAYLOAD,2022-07-11 14:00:01,15.54646674,0.0001654,53.2175,30.4532,35.0156,29.9045,-0.017289,-0.01059055,0.0,0 STARLINK-4078,1 52689U 22053AK  22192.58334491 -.01059055  00000-0 -17289-1 0  9990,2 52689  53.2175  30.4532 0001654  35.0156  29.9045 15.54646674  1309,6781.316999999999,92.626,404.304,402.06,0.0
52689.0,STARLINK-4078,PAYLOAD,2022-07-11 22:00:00,15.53887493,0.0001849,53.2175,28.8544,35.7553,95.3333,-0.017781,-0.01059216,0.0,0 STARLINK-4078,1 52689U 22053AK  22192.91667824 -.01059216  00000-0 -17781-1 0  9992,2 52689  53.2175  28.8544 0001849  35.7553  95.3333 15.53887493  1309,6783.525,92.671,406.645,404.136,0.0
52689.0,STARLINK-4078,PAYLOAD,2022-07-12 06:00:00,15.53130349,0.0001742,53.2176,27.254,38.8969,157.4492,-0.018358,-0.01063257,0.0,0 STARLINK-4078,1 52689U 22053AK  22193.25001157 -.01063257  00000-0 -18358-1 0  9992,2 52689  53.2176  27.2540 0001742  38.8969 157.4492 15.53130349  8940,6785.73,92.716,408.777,406.413,0.0
52689.0,STARLINK-4078,PAYLOAD,2022-07-12 14:00:01,15.52369171,0.0001595999999999,53.2176,25.6563,42.8052,217.886,-0.0188,-0.01059435,0.0,0 STARLINK-4078,1 52689U 22053AK  22193.58334491 -.01059435  00000-0 -18800-1 0  9993,2 52689  53.2176  25.6563 0001596  42.8052 217.8860 15.52369171  1301,6787.948,92.761,410.896,408.73,0.0
52689.0,STARLINK-4078,PAYLOAD,2022-07-12 22:00:00,15.51610483,0.0001659,53.2177,24.0628,34.0996,290.0224,-0.01936,-0.01061281,0.0,0 STARLINK-4078,1 52689U 22053AK  22193.91667824 -.01061281  00000-0 -19360-1 0  9993,2 52689  53.2177  24.0628 0001659  34.0996 290.0224 15.51610483  1308,6790.16,92.807,413.152,410.899,0.0
52689.0,STARLINK-4078,PAYLOAD,2022-07-13 04:00:00,15.51024974,0.0001588,53.2174,22.8657,39.7231,241.3788,-0.0191,-0.01028331,0.0,0 STARLINK-4078,1 52689U 22053AK  22194.16667824 -.01028331  00000-0 -19100-1 0  9992,2 52689  53.2174  22.8657 0001588  39.7231 241.3788 15.51024974  9089,6791.869000000002,92.842,414.81300000000016,412.656,0.0
52689.0,STARLINK-4078,PAYLOAD,2022-07-13 14:00:01,15.50031463,0.0001689,53.2177,20.8732,31.6455,56.6227,-0.0039591,-0.00220104,0.0,0 STARLINK-4078,1 52689U 22053AK  22194.58334491 -.00220104  00000-0 -39591-2 0  9997,2 52689  53.2177  20.8732 0001689  31.6455  56.6227 15.50031463  9147,6794.771,92.901,417.784,415.48800000000006,0.0
52689.0,STARLINK-4078,PAYLOAD,2022-07-13 22:00:00,15.49883632,0.000199,53.2176,19.282,31.6727,117.5851,6.6504e-05,3.324e-05,0.0,0 STARLINK-4078,1 52689U 22053AK  22194.91667824  .00003324  00000-0  66504-4 0  9990,2 52689  53.2176  19.2820 0001990  31.6727 117.5851 15.49883632  9199,6795.203,92.91,418.42,415.716,0.0
52689.0,STARLINK-4078,PAYLOAD,2022-07-14 14:00:01,15.49923138,0.0001657,53.2155,16.0823,306.7659,324.2419,-8.6776e-06,-9.45e-06,0.0,0 STARLINK-4078,1 52689U 22053AK  22195.58334491 -.00000945  00000-0 -86776-5 0  9997,2 52689  53.2155  16.0823 0001657 306.7659 324.2419 15.49923138  1302,6795.0880000000025,92.908,418.079,415.827,0.0
52689.0,STARLINK-4078,PAYLOAD,2022-07-14 22:00:00,15.49897418,0.0001877,53.2155,14.4908,314.9840000000001,16.9809,0.00091622,0.00051918,0.0,0 STARLINK-4078,1 52689U 22053AK  22195.91667824  .00051918  00000-0  91622-3 0  9991,2 52689  53.2155  14.4908 0001877 314.9840  16.9809 15.49897418  1304,6795.163000000001,92.909,418.30300000000005,415.752,0.0
52689.0,STARLINK-4078,PAYLOAD,2022-07-15 06:00:00,15.49924953,0.000178,53.2157,12.8957,310.5094,82.4097,0.00023503,0.00012928,0.0,0 STARLINK-4078,1 52689U 22053AK  22196.25001157  .00012928  00000-0  23503-3 0  9991,2 52689  53.2157  12.8957 0001780 310.5094  82.4097 15.49924953  9409,6795.081999999999,92.908,418.157,415.73800000000006,0.0
52689.0,STARLINK-4078,PAYLOAD,2022-07-15 14:00:01,15.49982604,0.0001672,53.2162,11.3035,317.5114,136.3639,-0.0021223,-0.001195,0.0,0 STARLINK-4078,1 52689U 22053AK  22196.58334491 -.00119500  00000-0 -21223-2 0  9999,2 52689  53.2162  11.3035 0001672 317.5114 136.3639 15.49982604  1305,6794.9140000000025,92.904,417.915,415.643,0.0
52689.0,STARLINK-4078,PAYLOAD,2022-07-15 22:00:00,15.50080347,0.0001628,53.217,9.7193,340.7097,174.1143,-0.010727,-0.00570838,0.0,0 STARLINK-4078,1 52689U 22053AK  22196.91667824 -.00570838  00000-0 -10727-1 0  9996,2 52689  53.2170   9.7193 0001628 340.7097 174.1143 15.50080347  9515,6794.628000000002,92.898,417.599,415.387,0.0
52689.0,STARLINK-4078,PAYLOAD,2022-07-16 14:00:01,15.49230602,0.0001874,53.2177,6.5419,31.2383,244.9232,-0.021022,-0.01058668,0.0,0 STARLINK-4078,1 52689U 22053AK  22197.58334491 -.01058668  00000-0 -21022-1 0  9994,2 52689  53.2177   6.5419 0001874  31.2383 244.9232 15.49230602  9616,6797.113,92.949,420.251,417.704,0.0
52689.0,STARLINK-4078,PAYLOAD,2022-07-16 22:00:00,15.48469596,0.0001829,53.2176,4.9556,27.2867,308.5353,-0.021532,-0.01055829,0.0,0 STARLINK-4078,1 52689U 22053AK  22197.91667824 -.01055829  00000-0 -21532-1 0  9992,2 52689  53.2176   4.9556 0001829  27.2867 308.5353 15.48469596  1305,6799.339,92.995,422.448,419.961,0.0
52689.0,STARLINK-4078,PAYLOAD,2022-07-17 14:00:01,15.46952185,0.0001761999999999,53.2177,1.784,34.4771,57.9293,-0.022778,-0.01058728,0.0,0 STARLINK-4078,1 52689U 22053AK  22198.58334491 -.01058728  00000-0 -22778-1 0  9991,2 52689  53.2177   1.7840 0001762  34.4771  57.9293 15.46952185  9762,6803.785,93.086,426.849,424.451,0.0
52689.0,STARLINK-4078,PAYLOAD,2022-07-17 22:00:00,15.46187769,0.0001872,53.2174,0.2028,35.1224,114.2077,-0.023178,-0.01049959,0.0,0 STARLINK-4078,1 52689U 22053AK  22198.91667824 -.01049959  00000-0 -23178-1 0  9998,2 52689  53.2174   0.2028 0001872  35.1224 114.2077 15.46187769  1301,6806.026999999999,93.132,429.166,426.61800000000005,0.0
52689.0,STARLINK-4078,PAYLOAD,2022-07-18 14:00:01,15.44672272,0.0001639,53.2176,357.0424,42.4771,217.9601,-0.024564,-0.01055432,0.0,0 STARLINK-4078,1 52689U 22053AK  22199.58334491 -.01055432  00000-0 -24564-1 0  9996,2 52689  53.2176 357.0424 0001639  42.4771 217.9601 15.44672272  9921,6810.478,93.224,433.459,431.227,0.0
52689.0,STARLINK-4078,PAYLOAD,2022-07-18 22:00:00,15.43912417,0.0001602,53.2173,355.4666,36.5641,278.0574,-0.025172,-0.01053928,0.0,0 STARLINK-4078,1 52689U 22053AK  22199.91667824 -.01053928  00000-0 -25172-1 0  9996,2 52689  53.2173 355.4666 0001602  36.5641 278.0574 15.43912417  1306,6812.7130000000025,93.27,435.669,433.486,0.0
52689.0,STARLINK-4078,PAYLOAD,2022-07-19 06:00:00,15.43152086,0.0001322,53.2174,353.8895,45.9719,321.9238,-0.025833,-0.01053887,0.0,0 STARLINK-4078,1 52689U 22053AK  22200.25001157 -.01053887  00000-0 -25833-1 0  9995,2 52689  53.2174 353.8895 0001322  45.9719 321.9238 15.43152086 10024,6814.95,93.315,437.716,435.914,0.0
52689.0,STARLINK-4078,PAYLOAD,2022-07-19 14:00:01,15.42394863,0.0001746,53.2175,352.3172,33.7072,26.5465,-0.026593,-0.01072031,0.0,0 STARLINK-4078,1 52689U 22053AK  22200.58334491 -.01072031  00000-0 -26593-1 0  9997,2 52689  53.2175 352.3172 0001746  33.7072  26.5465 15.42394863  1305,6817.181,93.361,440.236,437.855,0.0
52689.0,STARLINK-4078,PAYLOAD,2022-07-19 22:00:00,15.41633157,0.000188,53.2172,350.7465,33.0024,78.6984,-0.027155,-0.01067412,0.0,0 STARLINK-4078,1 52689U 22053AK  22200.91667824 -.01067412  00000-0 -27155-1 0  9995,2 52689  53.2172 350.7465 0001880  33.0024  78.6984 15.41633157  1303,6819.426,93.407,442.573,440.009,0.0
52689.0,STARLINK-4078,PAYLOAD,2022-07-20 14:00:01,15.40113516,0.0001868,53.2175,347.6082,38.371,173.4864,-0.028543,-0.01066524,0.0,0 STARLINK-4078,1 52689U 22053AK  22201.58334491 -.01066524  00000-0 -28543-1 0  9995,2 52689  53.2175 347.6082 0001868  38.3710 173.4864 15.40113516 10236,6823.911,93.5,447.051,444.501,0.0
52689.0,STARLINK-4078,PAYLOAD,2022-07-20 22:00:01,15.39356016,0.000152,53.2172,346.0427,47.6178,213.0113,-0.029347,-0.01069072,0.0,0 STARLINK-4078,1 52689U 22053AK  22201.91668981 -.01069072  00000-0 -29347-1 0  9990,2 52689  53.2172 346.0427 0001520  47.6178 213.0113 15.39356016  1303,6826.149,93.546,449.052,446.977,0.0
52689.0,STARLINK-4078,PAYLOAD,2022-07-21 08:00:01,15.38404932,0.0001776,53.2174,344.0855,32.2164,17.9537,-0.030236,-0.0106766,0.0,0 STARLINK-4078,1 52689U 22053AK  22202.33334491 -.01067660  00000-0 -30236-1 0  9993,2 52689  53.2174 344.0855 0001776  32.2164  17.9537 15.38404932 10341,6828.9630000000025,93.603,452.04,449.615,0.0
